[{"OBJECT_NAME":"ONEWEB-0588","OBJECT_ID":"2023-004P","EPOCH":"2026-06-12T04:13:48.122688","MEAN_MOTION":13.18685074,"ECCENTRICITY":0.0002296,"INCLINATION":87.9156,"RA_OF_ASC_NODE":336.467,"ARG_OF_PERICENTER":98.2351,"MEAN_ANOMALY":261.9041,"EPHEMERIS_TYPE":0,"CLASSIFICATION_TYPE":"U","NORAD_CAT_ID":55153,"ELEMENT_SET_NO":999,"REV_AT_EPOCH":16903,"BSTAR":-3.6645e-05,"MEAN_MOTION_DOT":-2e-08,"MEAN_MOTION_DDOT":0.0},{"OBJECT_NAME":"ONEWEB-0598","OBJECT_ID":"2023-004Q","EPOCH":"2026-06-12T02:59:31.768800","MEAN_MOTION":13.11419212,"ECCENTRICITY":0.0001498,"INCLINATION":87.8888,"RA_OF_ASC_NODE":22.0768,"ARG_OF_PERICENTER":107.9744,"MEAN_ANOMALY":252.1547,"EPHEMERIS_TYPE":0,"CLASSIFICATION_TYPE":"U","NORAD_CAT_ID":55154,"ELEMENT_SET_NO":999,"REV_AT_EPOCH":16523,"BSTAR":0.001034,"MEAN_MOTION_DOT":3.79e-06,"MEAN_MOTION_DDOT":0.0},{"OBJECT_NAME":"ONEWEB-0599","OBJECT_ID":"2023-004R","EPOCH":"2026-06-12T02:08:14.412480","MEAN_MOTION":13.17648636,"ECCENTRICITY":0.0001607,"INCLINATION":87.9135,"RA_OF_ASC_NODE":6.8785,"ARG_OF_PERICENTER":87.0636,"MEAN_ANOMALY":273.068,"EPHEMERIS_TYPE":0,"CLASSIFICATION_TYPE":"U","NORAD_CAT_ID":55155,"ELEMENT_SET_NO":999,"REV_AT_EPOCH":16681,"BSTAR":0.00012874,"MEAN_MOTION_DOT":6.3e-07,"MEAN_MOTION_DDOT":0.0},{"OBJECT_NAME":"ONEWEB-0614","OBJECT_ID":"2023-004S","EPOCH":"2026-06-12T02:52:11.489088","MEAN_MOTION":13.11420046,"ECCENTRICITY":0.000202,"INCLINATION":87.889,"RA_OF_ASC_NODE":22.0866,"ARG_OF_PERICENTER":82.3305,"MEAN_ANOMALY":277.8052,"EPHEMERIS_TYPE":0,"CLASSIFICATION_TYPE":"U","NORAD_CAT_ID":55156,"ELEMENT_SET_NO":999,"REV_AT_EPOCH":16517,"BSTAR":0.00056083,"MEAN_MOTION_DOT":2.11e-06,"MEAN_MOTION_DDOT":0.0},{"OBJECT_NAME":"ONEWEB-0616","OBJECT_ID":"2023-004T","EPOCH":"2026-06-12T06:47:41.646624","MEAN_MOTION":13.17648301,"ECCENTRICITY":0.0001094,"INCLINATION":87.9137,"RA_OF_ASC_NODE":6.8435,"ARG_OF_PERICENTER":66.8042,"MEAN_ANOMALY":293.3205,"EPHEMERIS_TYPE":0,"CLASSIFICATION_TYPE":"U","NORAD_CAT_ID":55157,"ELEMENT_SET_NO":999,"REV_AT_EPOCH":16705,"BSTAR":-0.0001211,"MEAN_MOTION_DOT":-3.4e-07,"MEAN_MOTION_DDOT":0.0},{"OBJECT_NAME":"ONEWEB-0617","OBJECT_ID":"2023-004U","EPOCH":"2026-06-12T02:35:06.367776","MEAN_MOTION":13.11418948,"ECCENTRICITY":0.0002245,"INCLINATION":87.8895,"RA_OF_ASC_NODE":22.0797,"ARG_OF_PERICENTER":86.7193,"MEAN_ANOMALY":273.4191,"EPHEMERIS_TYPE":0,"CLASSIFICATION_TYPE":"U","NORAD_CAT_ID":55158,"ELEMENT_SET_NO":999,"REV_AT_EPOCH":16519,"BSTAR":-0.00091274,"MEAN_MOTION_DOT":-3.11e-06,"MEAN_MOTION_DDOT":0.0},{"OBJECT_NAME":"ONEWEB-0618","OBJECT_ID":"2023-004V","EPOCH":"2026-06-12T07:07:45.431904","MEAN_MOTION":15.13107704,"ECCENTRICITY":0.001027,"INCLINATION":86.9097,"RA_OF_ASC_NODE":179.6196,"ARG_OF_PERICENTER":322.7438,"MEAN_ANOMALY":37.3088,"EPHEMERIS_TYPE":0,"CLASSIFICATION_TYPE":"U","NORAD_CAT_ID":55159,"ELEMENT_SET_NO":999,"REV_AT_EPOCH":18152,"BSTAR":0.00020642,"MEAN_MOTION_DOT":3.69e-05,"MEAN_MOTION_DDOT":0.0},{"OBJECT_NAME":"ONEWEB-0619","OBJECT_ID":"2023-004W","EPOCH":"2026-06-12T02:05:49.200000","MEAN_MOTION":13.17648773,"ECCENTRICITY":0.0002017,"INCLINATION":87.9146,"RA_OF_ASC_NODE":6.8626,"ARG_OF_PERICENTER":75.8953,"MEAN_ANOMALY":284.2403,"EPHEMERIS_TYPE":0,"CLASSIFICATION_TYPE":"U","NORAD_CAT_ID":55160,"ELEMENT_SET_NO":999,"REV_AT_EPOCH":16692,"BSTAR":0.00017522,"MEAN_MOTION_DOT":8.1e-07,"MEAN_MOTION_DDOT":0.0},{"OBJECT_NAME":"ONEWEB-0620","OBJECT_ID":"2023-004X","EPOCH":"2026-06-12T02:27:45.523872","MEAN_MOTION":13.11419435,"ECCENTRICITY":0.0001839,"INCLINATION":87.8889,"RA_OF_ASC_NODE":22.0896,"ARG_OF_PERICENTER":93.4506,"MEAN_ANOMALY":266.6832,"EPHEMERIS_TYPE":0,"CLASSIFICATION_TYPE":"U","NORAD_CAT_ID":55161,"ELEMENT_SET_NO":999,"REV_AT_EPOCH":16516,"BSTAR":-0.0011514000000000001,"MEAN_MOTION_DOT":-3.95e-06,"MEAN_MOTION_DDOT":0.0},{"OBJECT_NAME":"ONEWEB-0621","OBJECT_ID":"2023-004Y","EPOCH":"2026-06-12T03:06:51.139584","MEAN_MOTION":13.11418912,"ECCENTRICITY":0.0002022,"INCLINATION":87.8898,"RA_OF_ASC_NODE":22.0724,"ARG_OF_PERICENTER":81.4116,"MEAN_ANOMALY":278.7241,"EPHEMERIS_TYPE":0,"CLASSIFICATION_TYPE":"U","NORAD_CAT_ID":55162,"ELEMENT_SET_NO":999,"REV_AT_EPOCH":16514,"BSTAR":0.0015764000000000002,"MEAN_MOTION_DOT":5.71e-06,"MEAN_MOTION_DDOT":0.0},{"OBJECT_NAME":"ONEWEB-0622","OBJECT_ID":"2023-004Z","EPOCH":"2026-06-12T03:14:11.128992","MEAN_MOTION":13.1141772,"ECCENTRICITY":0.000252,"INCLINATION":87.89,"RA_OF_ASC_NODE":22.0738,"ARG_OF_PERICENTER":91.5061,"MEAN_ANOMALY":268.6356,"EPHEMERIS_TYPE":0,"CLASSIFICATION_TYPE":"U","NORAD_CAT_ID":55163,"ELEMENT_SET_NO":999,"REV_AT_EPOCH":16513,"BSTAR":0.0016661000000000002,"MEAN_MOTION_DOT":6.03e-06,"MEAN_MOTION_DDOT":0.0},{"OBJECT_NAME":"ONEWEB-0623","OBJECT_ID":"2023-004AA","EPOCH":"2026-06-12T01:58:31.283328","MEAN_MOTION":13.17649162,"ECCENTRICITY":0.0002589,"INCLINATION":87.9131,"RA_OF_ASC_NODE":6.8946,"ARG_OF_PERICENTER":80.6437,"MEAN_ANOMALY":279.4987,"EPHEMERIS_TYPE":0,"CLASSIFICATION_TYPE":"U","NORAD_CAT_ID":55164,"ELEMENT_SET_NO":999,"REV_AT_EPOCH":16691,"BSTAR":-9.5322e-05,"MEAN_MOTION_DOT":-2.4e-07,"MEAN_MOTION_DDOT":0.0},{"OBJECT_NAME":"ONEWEB-0624","OBJECT_ID":"2023-004AB","EPOCH":"2026-06-12T00:18:15.274656","MEAN_MOTION":13.12928453,"ECCENTRICITY":0.0001898,"INCLINATION":87.8944,"RA_OF_ASC_NODE":351.6153,"ARG_OF_PERICENTER":87.9181,"MEAN_ANOMALY":272.2165,"EPHEMERIS_TYPE":0,"CLASSIFICATION_TYPE":"U","NORAD_CAT_ID":55165,"ELEMENT_SET_NO":999,"REV_AT_EPOCH":16739,"BSTAR":-0.00086536,"MEAN_MOTION_DOT":-3.01e-06,"MEAN_MOTION_DDOT":0.0},{"OBJECT_NAME":"ONEWEB-0625","OBJECT_ID":"2023-004AC","EPOCH":"2026-06-12T01:43:57.090720","MEAN_MOTION":13.17648604,"ECCENTRICITY":0.0001747,"INCLINATION":87.9134,"RA_OF_ASC_NODE":6.8922,"ARG_OF_PERICENTER":83.5941,"MEAN_ANOMALY":276.5389,"EPHEMERIS_TYPE":0,"CLASSIFICATION_TYPE":"U","NORAD_CAT_ID":55166,"ELEMENT_SET_NO":999,"REV_AT_EPOCH":16690,"BSTAR":4.8695000000000006e-06,"MEAN_MOTION_DOT":1.5e-07,"MEAN_MOTION_DDOT":0.0},{"OBJECT_NAME":"ONEWEB-0626","OBJECT_ID":"2023-004AD","EPOCH":"2026-06-12T01:29:22.605216","MEAN_MOTION":13.17649162,"ECCENTRICITY":0.0001789,"INCLINATION":87.9136,"RA_OF_ASC_NODE":6.8938,"ARG_OF_PERICENTER":100.9835,"MEAN_ANOMALY":259.1498,"EPHEMERIS_TYPE":0,"CLASSIFICATION_TYPE":"U","NORAD_CAT_ID":55167,"ELEMENT_SET_NO":999,"REV_AT_EPOCH":16690,"BSTAR":-7.1586e-05,"MEAN_MOTION_DOT":-1.5e-07,"MEAN_MOTION_DDOT":0.0},{"OBJECT_NAME":"ONEWEB-0627","OBJECT_ID":"2023-004AE","EPOCH":"2026-06-12T01:12:20.732544","MEAN_MOTION":13.17648017,"ECCENTRICITY":0.0002336,"INCLINATION":87.9136,"RA_OF_ASC_NODE":6.8963,"ARG_OF_PERICENTER":82.3295,"MEAN_ANOMALY":277.8102,"EPHEMERIS_TYPE":0,"CLASSIFICATION_TYPE":"U","NORAD_CAT_ID":55168,"ELEMENT_SET_NO":999,"REV_AT_EPOCH":16690,"BSTAR":7.9842e-06,"MEAN_MOTION_DOT":1.6e-07,"MEAN_MOTION_DDOT":0.0}]