ONEWEB-0588             
1 55153U 23004P   26163.17625142 -.00000002  00000+0 -36645-4 0  9995
2 55153  87.9156 336.4670 0002296  98.2351 261.9041 13.18685074169038
ONEWEB-0598             
1 55154U 23004Q   26163.12467325  .00000379  00000+0  10340-2 0  9995
2 55154  87.8888  22.0768 0001498 107.9744 252.1547 13.11419212165236
ONEWEB-0599             
1 55155U 23004R   26163.08905570  .00000063  00000+0  12874-3 0  9995
2 55155  87.9135   6.8785 0001607  87.0636 273.0680 13.17648636166817
ONEWEB-0614             
1 55156U 23004S   26163.11957742  .00000211  00000+0  56083-3 0  9993
2 55156  87.8890  22.0866 0002020  82.3305 277.8052 13.11420046165176
ONEWEB-0616             
1 55157U 23004T   26163.28312091 -.00000034  00000+0 -12110-3 0  9992
2 55157  87.9137   6.8435 0001094  66.8042 293.3205 13.17648301167053
ONEWEB-0617             
1 55158U 23004U   26163.10771259 -.00000311  00000+0 -91274-3 0  9995
2 55158  87.8895  22.0797 0002245  86.7193 273.4191 13.11418948165194
ONEWEB-0618             
1 55159U 23004V   26163.29705361  .00003690  00000+0  20642-3 0  9999
2 55159  86.9097 179.6196 0010270 322.7438  37.3088 15.13107704181529
ONEWEB-0619             
1 55160U 23004W   26163.08737500  .00000081  00000+0  17522-3 0  9992
2 55160  87.9146   6.8626 0002017  75.8953 284.2403 13.17648773166923
ONEWEB-0620             
1 55161U 23004X   26163.10261023 -.00000395  00000+0 -11514-2 0  9992
2 55161  87.8889  22.0896 0001839  93.4506 266.6832 13.11419435165167
ONEWEB-0621             
1 55162U 23004Y   26163.12975856  .00000571  00000+0  15764-2 0  9996
2 55162  87.8898  22.0724 0002022  81.4116 278.7241 13.11418912165142
ONEWEB-0622             
1 55163U 23004Z   26163.13485103  .00000603  00000+0  16661-2 0  9992
2 55163  87.8900  22.0738 0002520  91.5061 268.6356 13.11417720165136
ONEWEB-0623             
1 55164U 23004AA  26163.08230652 -.00000024  00000+0 -95322-4 0  9996
2 55164  87.9131   6.8946 0002589  80.6437 279.4987 13.17649162166916
ONEWEB-0624             
1 55165U 23004AB  26163.01267679 -.00000301  00000+0 -86536-3 0  9993
2 55165  87.8944 351.6153 0001898  87.9181 272.2165 13.12928453167397
ONEWEB-0625             
1 55166U 23004AC  26163.07218855  .00000015  00000+0  48695-5 0  9998
2 55166  87.9134   6.8922 0001747  83.5941 276.5389 13.17648604166905
ONEWEB-0626             
1 55167U 23004AD  26163.06206719 -.00000015  00000+0 -71586-4 0  9990
2 55167  87.9136   6.8938 0001789 100.9835 259.1498 13.17649162166905
ONEWEB-0627             
1 55168U 23004AE  26163.05023996  .00000016  00000+0  79842-5 0  9997
2 55168  87.9136   6.8963 0002336  82.3295 277.8102 13.17648017166903
